GLOBALSTAR M063         
1 26081U 00008A   25063.91332874 -.00000073  00000+0  13525-3 0  9997
2 26081  51.9978  26.1897 0004927 112.6479 280.5238 11.86166631145202
GLOBALSTAR M060         
1 26083U 00008C   25063.80677093 -.00000097  00000+0 -60730-4 0  9990
2 26083  52.0052 347.9743 0002861 277.6971 115.4144 12.17657510139657
GLOBALSTAR M065         
1 31571U 07020A   25063.85938654  .00000064  00000+0  94159-3 0  9990
2 31571  51.9884 183.8081 0010877  79.0922  72.5295 12.61996407820235
GLOBALSTAR M069         
1 31573U 07020C   25063.69974397 -.00000052  00000+0  32617-3 0  9997
2 31573  51.9942 149.2371 0001337 114.8164   8.5228 12.44935356821184
GLOBALSTAR M071         
1 31576U 07020F   25063.77944727 -.00000012  00000+0  78144-3 0  9994
2 31576  52.0055 163.3923 0000673 191.0304 293.3703 12.18249420482219
